SENTINEL-3B             
1 43437U 18039A   25106.65957221  .00000299  00000+0  14133-3 0  9997
2 43437  98.6189 175.2140 0001667  96.5882 263.5488 14.26742856363308
GAOFEN-5 01             
1 43461U 18043A   25106.88802652  .00001554  00000+0  33317-3 0  9991
2 43461  98.4008  66.2269 0001457   9.2175 350.9051 14.60094261369476
GAOFEN-6                
1 43484U 18048A   25106.89710431  .00002746  00000+0  40004-3 0  9990
2 43484  97.8259 178.7864 0014215 108.7117 251.5637 14.76559751370485
GAOFEN-11 01            
1 43585U 18063A   25106.90910789  .00046922  00000+0  10894-2 0  9996
2 43585  97.1836 172.6800 0008213 100.1072 260.1103 15.42192187374388
ICESAT-2                
1 43613U 18070A   25106.88739691  .00058037  00000+0  20928-2 0  9993
2 43613  91.9936 176.3166 0006185  75.4176 284.7759 15.28295489367355
HYSIS                   
1 43719U 18096A   25106.88412588  .00005452  47140-8  74660-3 0  9992
2 43719  98.0342 170.5932 0001777  87.4268 272.7147 14.78571867344427
KAZSTSAT                
1 43783U 18099AB  25106.67520438  .00003628  00000+0  30761-3 0  9999
2 43783  97.4816 151.8831 0008710  53.2394 306.9627 14.98524570347407
SAUDISAT 5A             
1 43831U 18102A   25106.91495282  .00023106  00000+0  10001-2 0  9990
2 43831  97.3619 171.8597 0010947 189.6949 170.4078 15.22373537350701
SAUDISAT 5B             
1 43833U 18102C   25106.90508240  .00019106  00000+0  81642-3 0  9995
2 43833  97.3693 174.1721 0011538 193.2938 166.7996 15.22843364350804
GAOFEN-10R              
1 44622U 19066A   25106.95328685  .00006702  00000+0  84135-3 0  9998
2 44622  98.0007  54.0239 0007321  87.1020 273.1031 14.82454562299219
CARTOSAT-3              
1 44804U 19081A   25106.75097061  .00008233  00000+0  39146-3 0  9999
2 44804  97.4853 168.8581 0015324 194.8033 165.2754 15.19350785298720
GAOFEN-12 01            
1 44819U 19082A   25106.94416017  .00001631  00000+0  22066-3 0  9991
2 44819  97.8165 119.4746 0001816 348.8413  11.2758 14.80326681291020
CSG-1                   
1 44873U 19092A   25106.92497433  .00001948  00000+0  25119-3 0  9994
2 44873  97.8875 291.7139 0001492  84.4890 275.6494 14.82160928288335
NEMO-HD                 
1 46277U 20061F   25106.90567177  .00031905  00000+0  93989-3 0  9999
2 46277  97.2491 169.5675 0002775 119.2320 240.9201 15.34973697256395
