[
  {
    "OBJECT_NAME": "SENTINEL-3B",
    "OBJECT_ID": "2018-039A",
    "EPOCH": "2025-04-16T15:49:47.038944",
    "MEAN_MOTION": 14.26742856,
    "ECCENTRICITY": 0.0001667,
    "INCLINATION": 98.6189,
    "RA_OF_ASC_NODE": 175.214,
    "ARG_OF_PERICENTER": 96.5882,
    "MEAN_ANOMALY": 263.5488,
    "EPHEMERIS_TYPE": 0,
    "CLASSIFICATION_TYPE": "U",
    "NORAD_CAT_ID": 43437,
    "ELEMENT_SET_NO": 999,
    "REV_AT_EPOCH": 36330,
    "BSTAR": 0.00014133,
    "MEAN_MOTION_DOT": 2.99e-6,
    "MEAN_MOTION_DDOT": 0
  },
  {
    "OBJECT_NAME": "GAOFEN-5 01",
    "OBJECT_ID": "2018-043A",
    "EPOCH": "2025-04-16T21:18:45.491328",
    "MEAN_MOTION": 14.60094261,
    "ECCENTRICITY": 0.0001457,
    "INCLINATION": 98.4008,
    "RA_OF_ASC_NODE": 66.2269,
    "ARG_OF_PERICENTER": 9.2175,
    "MEAN_ANOMALY": 350.9051,
    "EPHEMERIS_TYPE": 0,
    "CLASSIFICATION_TYPE": "U",
    "NORAD_CAT_ID": 43461,
    "ELEMENT_SET_NO": 999,
    "REV_AT_EPOCH": 36947,
    "BSTAR": 0.00033317,
    "MEAN_MOTION_DOT": 1.554e-5,
    "MEAN_MOTION_DDOT": 0
  },
  {
    "OBJECT_NAME": "GAOFEN-6",
    "OBJECT_ID": "2018-048A",
    "EPOCH": "2025-04-16T21:31:49.812384",
    "MEAN_MOTION": 14.76559751,
    "ECCENTRICITY": 0.0014215,
    "INCLINATION": 97.8259,
    "RA_OF_ASC_NODE": 178.7864,
    "ARG_OF_PERICENTER": 108.7117,
    "MEAN_ANOMALY": 251.5637,
    "EPHEMERIS_TYPE": 0,
    "CLASSIFICATION_TYPE": "U",
    "NORAD_CAT_ID": 43484,
    "ELEMENT_SET_NO": 999,
    "REV_AT_EPOCH": 37048,
    "BSTAR": 0.00040004,
    "MEAN_MOTION_DOT": 2.746e-5,
    "MEAN_MOTION_DDOT": 0
  },
  {
    "OBJECT_NAME": "GAOFEN-11 01",
    "OBJECT_ID": "2018-063A",
    "EPOCH": "2025-04-16T21:49:06.921696",
    "MEAN_MOTION": 15.42192187,
    "ECCENTRICITY": 0.0008213,
    "INCLINATION": 97.1836,
    "RA_OF_ASC_NODE": 172.68,
    "ARG_OF_PERICENTER": 100.1072,
    "MEAN_ANOMALY": 260.1103,
    "EPHEMERIS_TYPE": 0,
    "CLASSIFICATION_TYPE": "U",
    "NORAD_CAT_ID": 43585,
    "ELEMENT_SET_NO": 999,
    "REV_AT_EPOCH": 37438,
    "BSTAR": 0.0010894,
    "MEAN_MOTION_DOT": 0.00046922,
    "MEAN_MOTION_DDOT": 0
  },
  {
    "OBJECT_NAME": "ICESAT-2",
    "OBJECT_ID": "2018-070A",
    "EPOCH": "2025-04-16T21:17:51.093024",
    "MEAN_MOTION": 15.28295489,
    "ECCENTRICITY": 0.0006185,
    "INCLINATION": 91.9936,
    "RA_OF_ASC_NODE": 176.3166,
    "ARG_OF_PERICENTER": 75.4176,
    "MEAN_ANOMALY": 284.7759,
    "EPHEMERIS_TYPE": 0,
    "CLASSIFICATION_TYPE": "U",
    "NORAD_CAT_ID": 43613,
    "ELEMENT_SET_NO": 999,
    "REV_AT_EPOCH": 36735,
    "BSTAR": 0.0020928,
    "MEAN_MOTION_DOT": 0.00058037,
    "MEAN_MOTION_DDOT": 0
  },
  {
    "OBJECT_NAME": "HYSIS",
    "OBJECT_ID": "2018-096A",
    "EPOCH": "2025-04-16T21:13:08.476032",
    "MEAN_MOTION": 14.78571867,
    "ECCENTRICITY": 0.0001777,
    "INCLINATION": 98.0342,
    "RA_OF_ASC_NODE": 170.5932,
    "ARG_OF_PERICENTER": 87.4268,
    "MEAN_ANOMALY": 272.7147,
    "EPHEMERIS_TYPE": 0,
    "CLASSIFICATION_TYPE": "U",
    "NORAD_CAT_ID": 43719,
    "ELEMENT_SET_NO": 999,
    "REV_AT_EPOCH": 34442,
    "BSTAR": 0.0007466,
    "MEAN_MOTION_DOT": 5.452e-5,
    "MEAN_MOTION_DDOT": 4.714e-9
  },
  {
    "OBJECT_NAME": "KAZSTSAT",
    "OBJECT_ID": "2018-099AB",
    "EPOCH": "2025-04-16T16:12:17.658432",
    "MEAN_MOTION": 14.9852457,
    "ECCENTRICITY": 0.000871,
    "INCLINATION": 97.4816,
    "RA_OF_ASC_NODE": 151.8831,
    "ARG_OF_PERICENTER": 53.2394,
    "MEAN_ANOMALY": 306.9627,
    "EPHEMERIS_TYPE": 0,
    "CLASSIFICATION_TYPE": "U",
    "NORAD_CAT_ID": 43783,
    "ELEMENT_SET_NO": 999,
    "REV_AT_EPOCH": 34740,
    "BSTAR": 0.00030761,
    "MEAN_MOTION_DOT": 3.628e-5,
    "MEAN_MOTION_DDOT": 0
  },
  {
    "OBJECT_NAME": "SAUDISAT 5A",
    "OBJECT_ID": "2018-102A",
    "EPOCH": "2025-04-16T21:57:31.923648",
    "MEAN_MOTION": 15.22373537,
    "ECCENTRICITY": 0.0010947,
    "INCLINATION": 97.3619,
    "RA_OF_ASC_NODE": 171.8597,
    "ARG_OF_PERICENTER": 189.6949,
    "MEAN_ANOMALY": 170.4078,
    "EPHEMERIS_TYPE": 0,
    "CLASSIFICATION_TYPE": "U",
    "NORAD_CAT_ID": 43831,
    "ELEMENT_SET_NO": 999,
    "REV_AT_EPOCH": 35070,
    "BSTAR": 0.0010001,
    "MEAN_MOTION_DOT": 0.00023106,
    "MEAN_MOTION_DDOT": 0
  },
  {
    "OBJECT_NAME": "SAUDISAT 5B",
    "OBJECT_ID": "2018-102C",
    "EPOCH": "2025-04-16T21:43:19.119360",
    "MEAN_MOTION": 15.22843364,
    "ECCENTRICITY": 0.0011538,
    "INCLINATION": 97.3693,
    "RA_OF_ASC_NODE": 174.1721,
    "ARG_OF_PERICENTER": 193.2938,
    "MEAN_ANOMALY": 166.7996,
    "EPHEMERIS_TYPE": 0,
    "CLASSIFICATION_TYPE": "U",
    "NORAD_CAT_ID": 43833,
    "ELEMENT_SET_NO": 999,
    "REV_AT_EPOCH": 35080,
    "BSTAR": 0.00081642,
    "MEAN_MOTION_DOT": 0.00019106,
    "MEAN_MOTION_DDOT": 0
  },
  {
    "OBJECT_NAME": "GAOFEN-10R",
    "OBJECT_ID": "2019-066A",
    "EPOCH": "2025-04-16T22:52:43.983840",
    "MEAN_MOTION": 14.82454562,
    "ECCENTRICITY": 0.0007321,
    "INCLINATION": 98.0007,
    "RA_OF_ASC_NODE": 54.0239,
    "ARG_OF_PERICENTER": 87.102,
    "MEAN_ANOMALY": 273.1031,
    "EPHEMERIS_TYPE": 0,
    "CLASSIFICATION_TYPE": "U",
    "NORAD_CAT_ID": 44622,
    "ELEMENT_SET_NO": 999,
    "REV_AT_EPOCH": 29921,
    "BSTAR": 0.00084135,
    "MEAN_MOTION_DOT": 6.702e-5,
    "MEAN_MOTION_DDOT": 0
  },
  {
    "OBJECT_NAME": "CARTOSAT-3",
    "OBJECT_ID": "2019-081A",
    "EPOCH": "2025-04-16T18:01:23.860704",
    "MEAN_MOTION": 15.19350785,
    "ECCENTRICITY": 0.0015324,
    "INCLINATION": 97.4853,
    "RA_OF_ASC_NODE": 168.8581,
    "ARG_OF_PERICENTER": 194.8033,
    "MEAN_ANOMALY": 165.2754,
    "EPHEMERIS_TYPE": 0,
    "CLASSIFICATION_TYPE": "U",
    "NORAD_CAT_ID": 44804,
    "ELEMENT_SET_NO": 999,
    "REV_AT_EPOCH": 29872,
    "BSTAR": 0.00039146,
    "MEAN_MOTION_DOT": 8.233e-5,
    "MEAN_MOTION_DDOT": 0
  },
  {
    "OBJECT_NAME": "GAOFEN-12 01",
    "OBJECT_ID": "2019-082A",
    "EPOCH": "2025-04-16T22:39:35.438688",
    "MEAN_MOTION": 14.80326681,
    "ECCENTRICITY": 0.0001816,
    "INCLINATION": 97.8165,
    "RA_OF_ASC_NODE": 119.4746,
    "ARG_OF_PERICENTER": 348.8413,
    "MEAN_ANOMALY": 11.2758,
    "EPHEMERIS_TYPE": 0,
    "CLASSIFICATION_TYPE": "U",
    "NORAD_CAT_ID": 44819,
    "ELEMENT_SET_NO": 999,
    "REV_AT_EPOCH": 29102,
    "BSTAR": 0.00022066,
    "MEAN_MOTION_DOT": 1.631e-5,
    "MEAN_MOTION_DDOT": 0
  },
  {
    "OBJECT_NAME": "CSG-1",
    "OBJECT_ID": "2019-092A",
    "EPOCH": "2025-04-16T22:11:57.782112",
    "MEAN_MOTION": 14.82160928,
    "ECCENTRICITY": 0.0001492,
    "INCLINATION": 97.8875,
    "RA_OF_ASC_NODE": 291.7139,
    "ARG_OF_PERICENTER": 84.489,
    "MEAN_ANOMALY": 275.6494,
    "EPHEMERIS_TYPE": 0,
    "CLASSIFICATION_TYPE": "U",
    "NORAD_CAT_ID": 44873,
    "ELEMENT_SET_NO": 999,
    "REV_AT_EPOCH": 28833,
    "BSTAR": 0.00025119,
    "MEAN_MOTION_DOT": 1.948e-5,
    "MEAN_MOTION_DDOT": 0
  },
  {
    "OBJECT_NAME": "NEMO-HD",
    "OBJECT_ID": "2020-061F",
    "EPOCH": "2025-04-16T21:44:10.040928",
    "MEAN_MOTION": 15.34973697,
    "ECCENTRICITY": 0.0002775,
    "INCLINATION": 97.2491,
    "RA_OF_ASC_NODE": 169.5675,
    "ARG_OF_PERICENTER": 119.232,
    "MEAN_ANOMALY": 240.9201,
    "EPHEMERIS_TYPE": 0,
    "CLASSIFICATION_TYPE": "U",
    "NORAD_CAT_ID": 46277,
    "ELEMENT_SET_NO": 999,
    "REV_AT_EPOCH": 25639,
    "BSTAR": 0.00093989,
    "MEAN_MOTION_DOT": 0.00031905,
    "MEAN_MOTION_DDOT": 0
  }
]
